{"type": "FeatureCollection", "features": [ {"type": "Feature", "properties": {"norad_id": 35038, "name": "COSMOS 2251 DEB", "group": "cosmos-2251-debris", "lat": -68.41152767074627, "lon": 1.9751534384822471, "alt_km": 839.3895070626431, "timestamp": "2025-12-09T16:56:36.970183+00:00", "meta": {"OBJECT_NAME": "COSMOS 2251 DEB", "OBJECT_ID": "1993-036AHB", "EPOCH": "2025-12-09T12:31:32.179008", "MEAN_MOTION": 14.25113991, "ECCENTRICITY": 0.0113743, "INCLINATION": 74.1065, "RA_OF_ASC_NODE": 48.3636, "ARG_OF_PERICENTER": 33.1674, "MEAN_ANOMALY": 28.8553, "EPHEMERIS_TYPE": 0, "CLASSIFICATION_TYPE": "U", "NORAD_CAT_ID": 35038, "ELEMENT_SET_NO": 999, "REV_AT_EPOCH": 85523, "BSTAR": 0.0018952, "MEAN_MOTION_DOT": 4.735e-05, "MEAN_MOTION_DDOT": 0}, "tle": {"line1": "1 35038U 93036AHB 25343.52190022  .00004735  00000+0  18952-2 0  9993", "line2": "2 35038  74.1065  48.3636 0113743  33.1674  28.8553 14.25113991855237"}}, "geometry": {"type": "Point", "coordinates": [1.9751534384822471, -68.41152767074627]}}, {"type": "Feature", "properties": {"norad_id": 35043, "name": "COSMOS 2251 DEB", "group": "cosmos-2251-debris", "lat": -70.13660070266245, "lon": -1.2693347953037837, "alt_km": 582.830970391271, "timestamp": "2025-12-09T16:56:36.970193+00:00", "meta": {"OBJECT_NAME": "COSMOS 2251 DEB", "OBJECT_ID": "1993-036AHG", "EPOCH": "2025-12-09T04:17:09.874464", "MEAN_MOTION": 14.76645506, "ECCENTRICITY": 0.0097128, "INCLINATION": 73.9514, "RA_OF_ASC_NODE": 52.5933, "ARG_OF_PERICENTER": 262.5152, "MEAN_ANOMALY": 96.4979, "EPHEMERIS_TYPE": 0, "CLASSIFICATION_TYPE": "U", "NORAD_CAT_ID": 35043, "ELEMENT_SET_NO": 999, "REV_AT_EPOCH": 67366, "BSTAR": 0.0046650855, "MEAN_MOTION_DOT": 0.00035389, "MEAN_MOTION_DDOT": 0}, "tle": {"line1": "1 35043U 93036AHG 25343.17858651  .00035389  00000+0  46651-2 0  9995", "line2": "2 35043  73.9514  52.5933 0097128 262.5152  96.4979 14.76645506673669"}}, "geometry": {"type": "Point", "coordinates": [-1.2693347953037837, -70.13660070266245]}}, {"type": "Feature", "properties": {"norad_id": 35045, "name": "COSMOS 2251 DEB", "group": "cosmos-2251-debris", "lat": -38.184648770815535, "lon": -108.64912928222188, "alt_km": 874.0670572218769, "timestamp": "2025-12-09T16:56:36.970203+00:00", "meta": {"OBJECT_NAME": "COSMOS 2251 DEB", "OBJECT_ID": "1993-036AHJ", "EPOCH": "2025-12-06T22:43:41.331360", "MEAN_MOTION": 14.0036659, "ECCENTRICITY": 0.0183364, "INCLINATION": 73.7196, "RA_OF_ASC_NODE": 62.9336, "ARG_OF_PERICENTER": 305.7539, "MEAN_ANOMALY": 52.6659, "EPHEMERIS_TYPE": 0, "CLASSIFICATION_TYPE": "U", "NORAD_CAT_ID": 35045, "ELEMENT_SET_NO": 999, "REV_AT_EPOCH": 84562, "BSTAR": 0.0010227315, "MEAN_MOTION_DOT": 1.724e-05, "MEAN_MOTION_DDOT": 0}, "tle": {"line1": "1 35045U 93036AHJ 25340.94700615  .00001724  00000+0  10227-2 0  9991", "line2": "2 35045  73.7196  62.9336 0183364 305.7539  52.6659 14.00366590845620"}}, "geometry": {"type": "Point", "coordinates": [-108.64912928222188, -38.184648770815535]}}, {"type": "Feature", "properties": {"norad_id": 35060, "name": "COSMOS 2251 DEB", "group": "cosmos-2251-debris", "lat": 37.51536649739773, "lon": -97.35039311828585, "alt_km": 744.5963374488456, "timestamp": "2025-12-09T16:56:36.970214+00:00", "meta": {"OBJECT_NAME": "COSMOS 2251 DEB", "OBJECT_ID": "1993-036AHP", "EPOCH": "2025-11-28T02:37:07.839264", "MEAN_MOTION": 14.41547968, "ECCENTRICITY": 0.00179641, "INCLINATION": 74.0363, "RA_OF_ASC_NODE": 271.4275, "ARG_OF_PERICENTER": 359.5881, "MEAN_ANOMALY": 0.5257, "EPHEMERIS_TYPE": 0, "CLASSIFICATION_TYPE": "U", "NORAD_CAT_ID": 35060, "ELEMENT_SET_NO": 999, "REV_AT_EPOCH": 87031, "BSTAR": 0.0004076845, "MEAN_MOTION_DOT": 1.301e-05, "MEAN_MOTION_DDOT": 0}, "tle": {"line1": "1 35060U 93036AHP 25332.10911851  .00001301  00000+0  40768-3 0  9998", "line2": "2 35060  74.0363 271.4275 0017964 359.5881   0.5257 14.41547968870310"}}, "geometry": {"type": "Point", "coordinates": [-97.35039311828585, 37.51536649739773]}}, {"type": "Feature", "properties": {"norad_id": 35061, "name": "COSMOS 2251 DEB", "group": "cosmos-2251-debris", "lat": -2.802982538948872, "lon": -49.21994715628375, "alt_km": 659.9844515935793, "timestamp": "2025-12-09T16:56:36.970224+00:00", "meta": {"OBJECT_NAME": "COSMOS 2251 DEB", "OBJECT_ID": "1993-036AHQ", "EPOCH": "2025-12-08T21:19:37.860096", "MEAN_MOTION": 14.67771775, "ECCENTRICITY": 0.0038987, "INCLINATION": 74.0463, "RA_OF_ASC_NODE": 313.16, "ARG_OF_PERICENTER": 65.1755, "MEAN_ANOMALY": 295.3461, "EPHEMERIS_TYPE": 0, "CLASSIFICATION_TYPE": "U", "NORAD_CAT_ID": 35061, "ELEMENT_SET_NO": 999, "REV_AT_EPOCH": 88518, "BSTAR": 0.0010303, "MEAN_MOTION_DOT": 5.916e-05, "MEAN_MOTION_DDOT": 0}, "tle": {"line1": "1 35061U 93036AHQ 25342.88863264  .00005916  00000+0  10303-2 0  9996", "line2": "2 35061  74.0463 313.1600 0038987  65.1755 295.3461 14.67771775885181"}}, "geometry": {"type": "Point", "coordinates": [-49.21994715628375, -2.802982538948872]}}, {"type": "Feature", "properties": {"norad_id": 35062, "name": "COSMOS 2251 DEB", "group": "cosmos-2251-debris", "lat": -5.166735572964986, "lon": -79.83617495985553, "alt_km": 811.097236946377, "timestamp": "2025-12-09T16:56:36.970235+00:00", "meta": {"OBJECT_NAME": "COSMOS 2251 DEB", "OBJECT_ID": "1993-036AHR", "EPOCH": "2025-12-08T08:01:44.515200", "MEAN_MOTION": 14.2287727, "ECCENTRICITY": 0.01278726, "INCLINATION": 74.0789, "RA_OF_ASC_NODE": 101.1426, "ARG_OF_PERICENTER": 102.1505, "MEAN_ANOMALY": 259.4, "EPHEMERIS_TYPE": 0, "CLASSIFICATION_TYPE": "U", "NORAD_CAT_ID": 35062, "ELEMENT_SET_NO": 999, "REV_AT_EPOCH": 85436, "BSTAR": 0.0023515819, "MEAN_MOTION_DOT": 5.727e-05, "MEAN_MOTION_DDOT": 0}, "tle": {"line1": "1 35062U 93036AHR 25342.33454300  .00005727  00000+0  23516-2 0  9994", "line2": "2 35062  74.0789 101.1426 0127872 102.1505 259.4000 14.22877270854365"}}, "geometry": {"type": "Point", "coordinates": [-79.83617495985553, -5.166735572964986]}}, {"type": "Feature", "properties": {"norad_id": 35065, "name": "COSMOS 2251 DEB", "group": "cosmos-2251-debris", "lat": -17.257621509296246, "lon": -165.10727122726976, "alt_km": 730.8194661038078, "timestamp": "2025-12-09T16:56:36.970245+00:00", "meta": {"OBJECT_NAME": "COSMOS 2251 DEB", "OBJECT_ID": "1993-036AHU", "EPOCH": "2025-12-08T21:05:49.871616", "MEAN_MOTION": 14.4570853, "ECCENTRICITY": 0.0019714, "INCLINATION": 74.0196, "RA_OF_ASC_NODE": 201.5431, "ARG_OF_PERICENTER": 327.1177, "MEAN_ANOMALY": 32.8753, "EPHEMERIS_TYPE": 0, "CLASSIFICATION_TYPE": "U", "NORAD_CAT_ID": 35065, "ELEMENT_SET_NO": 999, "REV_AT_EPOCH": 68295, "BSTAR": 0.00050947, "MEAN_MOTION_DOT": 1.782e-05, "MEAN_MOTION_DDOT": 0}, "tle": {"line1": "1 35065U 93036AHU 25342.87904944  .00001782  00000+0  50947-3 0  9996", "line2": "2 35065  74.0196 201.5431 0019714 327.1177  32.8753 14.45708530682959"}}, "geometry": {"type": "Point", "coordinates": [-165.10727122726976, -17.257621509296246]}}, {"type": "Feature", "properties": {"norad_id": 35071, "name": "COSMOS 2251 DEB", "group": "cosmos-2251-debris", "lat": -63.13811218994781, "lon": 144.99019298398522, "alt_km": 602.1874185111319, "timestamp": "2025-12-09T16:56:36.970255+00:00", "meta": {"OBJECT_NAME": "COSMOS 2251 DEB", "OBJECT_ID": "1993-036AJA", "EPOCH": "2025-12-06T06:11:48.969024", "MEAN_MOTION": 15.03269957, "ECCENTRICITY": 0.00683754, "INCLINATION": 73.9314, "RA_OF_ASC_NODE": 186.7627, "ARG_OF_PERICENTER": 85.1943, "MEAN_ANOMALY": 275.7048, "EPHEMERIS_TYPE": 0, "CLASSIFICATION_TYPE": "U", "NORAD_CAT_ID": 35071, "ELEMENT_SET_NO": 999, "REV_AT_EPOCH": 67439, "BSTAR": 0.0011992827, "MEAN_MOTION_DOT": 0.00017109, "MEAN_MOTION_DDOT": 0}, "tle": {"line1": "1 35071U 93036AJA 25340.25820566  .00017109  00000+0  11993-2 0  9997", "line2": "2 35071  73.9314 186.7627 0068375  85.1943 275.7048 15.03269957674390"}}, "geometry": {"type": "Point", "coordinates": [144.99019298398522, -63.13811218994781]}}, {"type": "Feature", "properties": {"norad_id": 35073, "name": "COSMOS 2251 DEB", "group": "cosmos-2251-debris", "lat": 66.0504450394123, "lon": 17.002802832140393, "alt_km": 551.8440540767497, "timestamp": "2025-12-09T16:56:36.970265+00:00", "meta": {"OBJECT_NAME": "COSMOS 2251 DEB", "OBJECT_ID": "1993-036AJC", "EPOCH": "2025-12-06T06:59:58.933248", "MEAN_MOTION": 14.99991639, "ECCENTRICITY": 0.00102924, "INCLINATION": 74.0009, "RA_OF_ASC_NODE": 343.7168, "ARG_OF_PERICENTER": 84.8418, "MEAN_ANOMALY": 275.3943, "EPHEMERIS_TYPE": 0, "CLASSIFICATION_TYPE": "U", "NORAD_CAT_ID": 35073, "ELEMENT_SET_NO": 999, "REV_AT_EPOCH": 67382, "BSTAR": 0.0044204403, "MEAN_MOTION_DOT": 0.00055435, "MEAN_MOTION_DDOT": 0}, "tle": {"line1": "1 35073U 93036AJC 25340.29165432  .00055435  00000+0  44204-2 0  9992", "line2": "2 35073  74.0009 343.7168 0010292  84.8418 275.3943 14.99991639673828"}}, "geometry": {"type": "Point", "coordinates": [17.002802832140393, 66.0504450394123]}}, {"type": "Feature", "properties": {"norad_id": 35284, "name": "COSMOS 2251 DEB", "group": "cosmos-2251-debris", "lat": 58.67391329179975, "lon": 61.980638252999334, "alt_km": 765.7182931920897, "timestamp": "2025-12-09T16:56:36.970276+00:00", "meta": {"OBJECT_NAME": "COSMOS 2251 DEB", "OBJECT_ID": "1993-036AJN", "EPOCH": "2025-12-09T11:57:18.076896", "MEAN_MOTION": 14.38312674, "ECCENTRICITY": 0.0016652, "INCLINATION": 74.0492, "RA_OF_ASC_NODE": 270.3915, "ARG_OF_PERICENTER": 347.5267, "MEAN_ANOMALY": 133.7603, "EPHEMERIS_TYPE": 0, "CLASSIFICATION_TYPE": "U", "NORAD_CAT_ID": 35284, "ELEMENT_SET_NO": 999, "REV_AT_EPOCH": 65479, "BSTAR": 0.00032789, "MEAN_MOTION_DOT": 9.73e-06, "MEAN_MOTION_DDOT": 0}, "tle": {"line1": "1 35284U 93036AJN 25343.49812589  .00000973  00000+0  32789-3 0  9996", "line2": "2 35284  74.0492 270.3915 0016652 347.5267 133.7603 14.38312674654794"}}, "geometry": {"type": "Point", "coordinates": [61.980638252999334, 58.67391329179975]}}]}